[{"OBJECT_NAME":"YAOGAN-43 01B","OBJECT_ID":"2024-148B","EPOCH":"2026-03-10T00:03:57.287232","MEAN_MOTION":15.33324462,"ECCENTRICITY":0.00075223,"INCLINATION":34.9931,"RA_OF_ASC_NODE":49.0936,"ARG_OF_PERICENTER":3.3114,"MEAN_ANOMALY":356.7653,"EPHEMERIS_TYPE":0,"CLASSIFICATION_TYPE":"U","NORAD_CAT_ID":60459,"ELEMENT_SET_NO":999,"REV_AT_EPOCH":8718,"BSTAR":0.00049972886,"MEAN_MOTION_DOT":0.00016531,"MEAN_MOTION_DDOT":0},{"OBJECT_NAME":"STARLINK-36757","OBJECT_ID":"2026-026H","EPOCH":"2026-03-09T22:00:01.999584","MEAN_MOTION":15.47745179,"ECCENTRICITY":0.0002088,"INCLINATION":97.2845,"RA_OF_ASC_NODE":123.4678,"ARG_OF_PERICENTER":87.7955,"MEAN_ANOMALY":48.2643,"EPHEMERIS_TYPE":0,"CLASSIFICATION_TYPE":"U","NORAD_CAT_ID":67728,"ELEMENT_SET_NO":999,"REV_AT_EPOCH":535,"BSTAR":-0.044342715,"MEAN_MOTION_DOT":-0.02044206,"MEAN_MOTION_DDOT":0}]
